NORAD_CAT_ID,OBJECT_NAME,OBJECT_TYPE,EPOCH,MEAN_MOTION,ECCENTRICITY,INCLINATION,RA_OF_ASC_NODE,ARG_OF_PERICENTER,MEAN_ANOMALY,BSTAR,MEAN_MOTION_DOT,MEAN_MOTION_DDOT,TLE_LINE0,TLE_LINE1,TLE_LINE2,SEMIMAJOR_AXIS,PERIOD,APOGEE,PERIGEE,DECAYED
52873.0,STARLINK-4211,PAYLOAD,2022-08-28 06:00:00,15.73179695,0.0004198999999999,53.2157,49.8901,2.8013,277.4859,0.00034361,0.00047853,0.0,0 STARLINK-4211,1 52873U 22062AV  22240.25001157  .00047853  00000-0  34361-3 0  9995,2 52873  53.2157  49.8901 0004199   2.8013 277.4859 15.73179695 11791,6727.953,91.534,352.64300000000014,346.99300000000005,0.0
52873.0,STARLINK-4211,PAYLOAD,2022-08-28 14:00:01,15.732653699999998,0.0004233,53.216,48.2388,3.2775,5.9227,-0.00052422,-0.00073802,0.0,0 STARLINK-4211,1 52873U 22062AV  22240.58334491 -.00073802  00000-0 -52422-3 0  9994,2 52873  53.2160  48.2388 0004233   3.2775   5.9227 15.73265370  1301,6727.709,91.529,352.422,346.726,0.0
52873.0,STARLINK-4211,PAYLOAD,2022-08-28 22:00:00,15.73219724,0.0004248,53.2165,46.5882,1.5623,96.6277,-0.0042988,-0.00566101,0.0,0 STARLINK-4211,1 52873U 22062AV  22240.91667824 -.00566101  00000-0 -42988-2 0  9994,2 52873  53.2165  46.5882 0004248   1.5623  96.6277 15.73219724  1309,6727.839,91.532,352.56199999999984,346.846,0.0
52873.0,STARLINK-4211,PAYLOAD,2022-08-29 14:00:01,15.72334954,0.0003998999999999,53.2175,43.2833,0.6756,274.4922,-0.0086744,-0.01056638,0.0,0 STARLINK-4211,1 52873U 22062AV  22241.58334491 -.01056638  00000-0 -86744-2 0  9997,2 52873  53.2175  43.2833 0003999   0.6756 274.4922 15.72334954  1304,6730.363,91.584,354.9190000000001,349.536,0.0
52873.0,STARLINK-4211,PAYLOAD,2022-08-29 16:00:00,15.72254814,0.0003578,53.2172,42.8731,342.7884,44.2605,-0.0099726,-0.01213499,0.0,0 STARLINK-4211,1 52873U 22062AV  22241.66667824 -.01213499  00000-0 -99726-2 0  9999,2 52873  53.2172  42.8731 0003578 342.7884  44.2605 15.72254814 12015,6730.590999999999,91.588,354.86400000000015,350.048,0.0
52873.0,STARLINK-4211,PAYLOAD,2022-08-29 22:00:00,15.715726,0.000392,53.2173,41.6366,357.8136,4.7771,-0.0089085,-0.01050937,0.0,0 STARLINK-4211,1 52873U 22062AV  22241.91667824 -.01050937  00000-0 -89085-2 0  9990,2 52873  53.2173  41.6366 0003920 357.8136   4.7771 15.71572600  1305,6732.5390000000025,91.628,357.043,351.765,0.0
52873.0,STARLINK-4211,PAYLOAD,2022-08-30 06:00:00,15.70816679,0.0004102,53.2175,39.9883,350.624,98.4772,-0.0092567,-0.01056964,0.0,0 STARLINK-4211,1 52873U 22062AV  22242.25001157 -.01056964  00000-0 -92567-2 0  9994,2 52873  53.2175  39.9883 0004102 350.6240  98.4772 15.70816679 12108,6734.699000000001,91.672,359.326,353.801,0.0
52873.0,STARLINK-4211,PAYLOAD,2022-08-30 14:00:01,15.70054077,0.0004876,53.2176,38.3446,356.1084,178.59099999999995,-0.0095042,-0.01051909,0.0,0 STARLINK-4211,1 52873U 22062AV  22242.58334491 -.01051909  00000-0 -95042-2 0  9995,2 52873  53.2176  38.3446 0004876 356.1084 178.5910 15.70054077  1302,6736.879,91.717,362.029,355.459,0.0
52873.0,STARLINK-4211,PAYLOAD,2022-08-30 22:00:00,15.69366946,0.0001593,53.2166,36.7056,293.9296,325.4095,-0.010648,-0.01133271,0.0,0 STARLINK-4211,1 52873U 22062AV  22242.91667824 -.01133271  00000-0 -10648-1 0  9992,2 52873  53.2166  36.7056 0001593 293.9296 325.4095 15.69366946  1302,6738.846,91.757,361.784,359.63699999999994,0.0
52873.0,STARLINK-4211,PAYLOAD,2022-08-31 14:00:01,15.67776645,0.0001431,53.2174,33.4228,41.407,24.6087,-0.010466,-0.01051882,0.0,0 STARLINK-4211,1 52873U 22062AV  22243.58334491 -.01051882  00000-0 -10466-1 0  9992,2 52873  53.2174  33.4228 0001431  41.4070  24.6087 15.67776645  1301,6743.401999999999,91.85,366.232,364.302,0.0
52873.0,STARLINK-4211,PAYLOAD,2022-08-31 20:00:01,15.6720522,0.0001032,53.2174,32.1961,74.5805,322.9809,-0.010681,-0.01048784,0.0,0 STARLINK-4211,1 52873U 22062AV  22243.83334491 -.01048784  00000-0 -10681-1 0  9996,2 52873  53.2174  32.1961 0001032  74.5805 322.9809 15.67205220 12350,6745.041,91.883,367.602,366.21,0.0
52873.0,STARLINK-4211,PAYLOAD,2022-08-31 22:00:00,15.66988985,0.0001309,53.2166,31.7884,60.7486,87.2278,-0.0104,-0.01015867,0.0,0 STARLINK-4211,1 52873U 22062AV  22243.91667824 -.01015867  00000-0 -10400-1 0  9999,2 52873  53.2166  31.7884 0001309  60.7486  87.2278 15.66988985  1308,6745.6619999999975,91.896,368.41,366.644,0.0
52873.0,STARLINK-4211,PAYLOAD,2022-09-01 14:00:01,15.65517994,0.0001171999999999,53.2173,28.5185,70.0016,239.171,-0.011771,-0.01076044,0.0,0 STARLINK-4211,1 52873U 22062AV  22244.58335648 -.01076044  00000-0 -11771-1 0  9995,2 52873  53.2173  28.5185 0001172  70.0016 239.1710 15.65517994  1301,6749.886,91.982,372.543,370.96,0.0
52873.0,STARLINK-4211,PAYLOAD,2022-09-01 22:00:00,15.64738506,0.0001147999999999,53.2171,26.8868,54.1233,334.2033,-0.01181,-0.01049293,0.0,0 STARLINK-4211,1 52873U 22062AV  22244.91667824 -.01049293  00000-0 -11810-1 0  9996,2 52873  53.2171  26.8868 0001148  54.1233 334.2033 15.64738506  1303,6752.128000000002,92.028,374.768,373.218,0.0
52873.0,STARLINK-4211,PAYLOAD,2022-09-02 14:00:01,15.63216227,0.000144,53.2174,23.6288,53.6785,130.3299,-0.012485,-0.01044612,0.0,0 STARLINK-4211,1 52873U 22062AV  22245.58334491 -.01044612  00000-0 -12485-1 0  9990,2 52873  53.2174  23.6288 0001440  53.6785 130.3299 15.63216227  1307,6756.511,92.118,379.349,377.403,0.0
52873.0,STARLINK-4211,PAYLOAD,2022-09-02 22:00:01,15.62460113,0.0001132,53.217,22.0035,81.847,178.6957,-0.012927,-0.01065503,0.0,0 STARLINK-4211,1 52873U 22062AV  22245.91668981 -.01065503  00000-0 -12927-1 0  9994,2 52873  53.2170  22.0035 0001132  81.8470 178.6957 15.62460113  1308,6758.69,92.162,381.32,379.79,0.0
52873.0,STARLINK-4211,PAYLOAD,2022-09-03 00:00:00,15.62274344,0.0001211999999999,53.2167,21.5979,50.3116,319.1391,-0.013106,-0.01071818,0.0,0 STARLINK-4211,1 52873U 22062AV  22246.00001157 -.01071818  00000-0 -13106-1 0  9997,2 52873  53.2167  21.5979 0001212  50.3116 319.1391 15.62274344 12699,6759.226,92.173,381.91,380.272,0.0
52873.0,STARLINK-4211,PAYLOAD,2022-09-03 14:00:01,15.60941034,0.0001424,53.2175,18.7568,42.5258,8.1561,-0.0137169999999999,-0.01065584,0.0,0 STARLINK-4211,1 52873U 22062AV  22246.58334491 -.01065584  00000-0 -13717-1 0  9991,2 52873  53.2175  18.7568 0001424  42.5258   8.1561 15.60941034  1300,6763.075,92.252,385.903,383.977,0.0
52873.0,STARLINK-4211,PAYLOAD,2022-09-03 22:00:00,15.60180501,0.0001431999999999,53.2167,17.1382,47.4721,76.9419,-0.014091,-0.01063136,0.0,0 STARLINK-4211,1 52873U 22062AV  22246.91667824 -.01063136  00000-0 -14091-1 0  9994,2 52873  53.2167  17.1382 0001432  47.4721  76.9419 15.60180501  1305,6765.272,92.297,388.106,386.168,0.0
52873.0,STARLINK-4211,PAYLOAD,2022-09-04 14:00:01,15.58675398,0.0001283,53.2173,13.9027,58.7553,210.4436,-0.015184,-0.01079675,0.0,0 STARLINK-4211,1 52873U 22062AV  22247.58335648 -.01079675  00000-0 -15184-1 0  9993,2 52873  53.2173  13.9027 0001283  58.7553 210.4436 15.58675398  1308,6769.627,92.386,392.36,390.62300000000016,0.0
52873.0,STARLINK-4211,PAYLOAD,2022-09-04 16:00:00,15.58478945,0.0001266,53.2174,13.4991,51.5046,325.4684,-0.015203,-0.01073566,0.0,0 STARLINK-4211,1 52873U 22062AV  22247.66667824 -.01073566  00000-0 -15203-1 0  9991,2 52873  53.2174  13.4991 0001266  51.5046 325.4684 15.58478945 12957,6770.196,92.398,392.918,391.203,0.0
52873.0,STARLINK-4211,PAYLOAD,2022-09-04 20:00:01,15.58088703,0.0001337,53.2172,12.6906,58.3533,174.1221,-0.015168,-0.01056966,0.0,0 STARLINK-4211,1 52873U 22062AV  22247.83334491 -.01056966  00000-0 -15168-1 0  9996,2 52873  53.2172  12.6906 0001337  58.3533 174.1221 15.58088703  1309,6771.326,92.421,394.096,392.286,0.0
52873.0,STARLINK-4211,PAYLOAD,2022-09-05 14:00:01,15.56382233,0.0001531999999999,53.2172,9.0624,46.2762,73.1139,-0.016249,-0.01061414,0.0,0 STARLINK-4211,1 52873U 22062AV  22248.58334491 -.01061414  00000-0 -16249-1 0  9994,2 52873  53.2172   9.0624 0001532  46.2762  73.1139 15.56382233 13091,6776.275,92.522,399.17800000000005,397.101,0.0
52873.0,STARLINK-4211,PAYLOAD,2022-09-05 22:00:00,15.55626813,0.0001474,53.2165,7.4544,52.9233,134.7212,-0.016812,-0.01067086,0.0,0 STARLINK-4211,1 52873U 22062AV  22248.91667824 -.01067086  00000-0 -16812-1 0  9997,2 52873  53.2165   7.4544 0001474  52.9233 134.7212 15.55626813  1309,6778.468000000003,92.567,401.332,399.334,0.0
52873.0,STARLINK-4211,PAYLOAD,2022-09-06 12:00:00,15.542917999999998,0.0001554,53.2174,4.6406,49.2229,165.6786,-0.017488,-0.01057444,0.0,0 STARLINK-4211,1 52873U 22062AV  22249.50001157 -.01057444  00000-0 -17488-1 0  9991,2 52873  53.2174   4.6406 0001554  49.2229 165.6786 15.54291800 13246,6782.349,92.647,405.268,403.16,0.0
52873.0,STARLINK-4211,PAYLOAD,2022-09-06 14:00:01,15.54103981,0.0001414,53.2172,4.2398,45.4378,275.9851,-0.017677,-0.01061105,0.0,0 STARLINK-4211,1 52873U 22062AV  22249.58334491 -.01061105  00000-0 -17677-1 0  9998,2 52873  53.2172   4.2398 0001414  45.4378 275.9851 15.54103981  1302,6782.895,92.658,405.72,403.801,0.0
52873.0,STARLINK-4211,PAYLOAD,2022-09-06 22:00:00,15.53349134,0.0001571999999999,53.2167,2.6371,34.879,352.0594,-0.0182699999999999,-0.01066296,0.0,0 STARLINK-4211,1 52873U 22062AV  22249.91667824 -.01066296  00000-0 -18270-1 0  9990,2 52873  53.2167   2.6371 0001572  34.8790 352.0594 15.53349134  1306,6785.093000000003,92.703,408.024,405.891,0.0
52873.0,STARLINK-4211,PAYLOAD,2022-09-07 04:00:00,15.52772624,0.0001406999999999,53.2173,1.4325,39.6346,305.8496,-0.01849,-0.01057492,0.0,0 STARLINK-4211,1 52873U 22062AV  22250.16667824 -.01057492  00000-0 -18490-1 0  9991,2 52873  53.2173   1.4325 0001407  39.6346 305.8496 15.52772624 13343,6786.772,92.737,409.592,407.682,0.0
52873.0,STARLINK-4211,PAYLOAD,2022-09-07 14:00:01,15.51854304,0.000151,53.2172,359.4351,53.2043,102.0219,-0.019925,-0.0109807,0.0,0 STARLINK-4211,1 52873U 22062AV  22250.58334491 -.01098070  00000-0 -19925-1 0  9999,2 52873  53.2172 359.4351 0001510  53.2043 102.0219 15.51854304  1306,6789.449000000001,92.792,412.339,410.289,0.0
